CCSDS_OMM_VERS = 2.0
CREATION_DATE  = 
ORIGINATOR     = 

OBJECT_NAME    = SL-16 R/B
OBJECT_ID      = 1996-051B
CENTER_NAME    = EARTH
REF_FRAME      = TEME
TIME_SYSTEM    = UTC
MEAN_ELEMENT_THEORY = SGP/SGP4

EPOCH          = 2025-11-06T17:21:40.878720
MEAN_MOTION    = 14.12392332
ECCENTRICITY   = .00177438
INCLINATION    = 70.7594
RA_OF_ASC_NODE = 75.5143
ARG_OF_PERICENTER = 307.1054
MEAN_ANOMALY   = 52.8443

EPHEMERIS_TYPE = 0
CLASSIFICATION_TYPE = U
NORAD_CAT_ID   = 24298
ELEMENT_SET_NO = 999
REV_AT_EPOCH   = 50428
BSTAR          = -.3203797E-5
MEAN_MOTION_DOT = -.55E-6
MEAN_MOTION_DDOT = 0

CCSDS_OMM_VERS = 2.0
CREATION_DATE  = 
ORIGINATOR     = 

OBJECT_NAME    = ORBVIEW 2 (SEASTAR)
OBJECT_ID      = 1997-037A
CENTER_NAME    = EARTH
REF_FRAME      = TEME
TIME_SYSTEM    = UTC
MEAN_ELEMENT_THEORY = SGP/SGP4

EPOCH          = 2025-11-07T00:23:28.465152
MEAN_MOTION    = 14.35374249
ECCENTRICITY   = .0003135
INCLINATION    = 98.8446
RA_OF_ASC_NODE = 107.1963
ARG_OF_PERICENTER = 71.6470
MEAN_ANOMALY   = 288.5056

EPHEMERIS_TYPE = 0
CLASSIFICATION_TYPE = U
NORAD_CAT_ID   = 24883
ELEMENT_SET_NO = 999
REV_AT_EPOCH   = 49087
BSTAR          = .16072E-3
MEAN_MOTION_DOT = .415E-5
MEAN_MOTION_DDOT = 0

CCSDS_OMM_VERS = 2.0
CREATION_DATE  = 
ORIGINATOR     = 

OBJECT_NAME    = SL-16 R/B
OBJECT_ID      = 1998-043G
CENTER_NAME    = EARTH
REF_FRAME      = TEME
TIME_SYSTEM    = UTC
MEAN_ELEMENT_THEORY = SGP/SGP4

EPOCH          = 2025-11-06T14:14:21.273792
MEAN_MOTION    = 14.26011435
ECCENTRICITY   = .00101887
INCLINATION    = 98.8062
RA_OF_ASC_NODE = 258.2204
ARG_OF_PERICENTER = 17.6356
MEAN_ANOMALY   = 342.5175

EPHEMERIS_TYPE = 0
CLASSIFICATION_TYPE = U
NORAD_CAT_ID   = 25400
ELEMENT_SET_NO = 999
REV_AT_EPOCH   = 42144
BSTAR          = .73052581E-4
MEAN_MOTION_DOT = .129E-5
MEAN_MOTION_DDOT = 0

CCSDS_OMM_VERS = 2.0
CREATION_DATE  = 
ORIGINATOR     = 

OBJECT_NAME    = SL-16 R/B
OBJECT_ID      = 1998-045B
CENTER_NAME    = EARTH
REF_FRAME      = TEME
TIME_SYSTEM    = UTC
MEAN_ELEMENT_THEORY = SGP/SGP4

EPOCH          = 2025-11-06T17:47:31.641216
MEAN_MOTION    = 14.16168474
ECCENTRICITY   = .00088796
INCLINATION    = 71.0110
RA_OF_ASC_NODE = 80.1266
ARG_OF_PERICENTER = 225.9082
MEAN_ANOMALY   = 134.1311

EPHEMERIS_TYPE = 0
CLASSIFICATION_TYPE = U
NORAD_CAT_ID   = 25407
ELEMENT_SET_NO = 999
REV_AT_EPOCH   = 40969
BSTAR          = .74502247E-4
MEAN_MOTION_DOT = .1E-5
MEAN_MOTION_DDOT = 0

CCSDS_OMM_VERS = 2.0
CREATION_DATE  = 
ORIGINATOR     = 

OBJECT_NAME    = ISS (ZARYA)
OBJECT_ID      = 1998-067A
CENTER_NAME    = EARTH
REF_FRAME      = TEME
TIME_SYSTEM    = UTC
MEAN_ELEMENT_THEORY = SGP/SGP4

EPOCH          = 2025-11-06T22:29:32.804736
MEAN_MOTION    = 15.49804267
ECCENTRICITY   = .0005156
INCLINATION    = 51.6334
RA_OF_ASC_NODE = 319.7134
ARG_OF_PERICENTER = 25.1218
MEAN_ANOMALY   = 335.0021

EPHEMERIS_TYPE = 0
CLASSIFICATION_TYPE = U
NORAD_CAT_ID   = 25544
ELEMENT_SET_NO = 999
REV_AT_EPOCH   = 53730
BSTAR          = .18426E-3
MEAN_MOTION_DOT = .10004E-3
MEAN_MOTION_DDOT = 0

CCSDS_OMM_VERS = 2.0
CREATION_DATE  = 
ORIGINATOR     = 

OBJECT_NAME    = CZ-4B R/B
OBJECT_ID      = 1999-025C
CENTER_NAME    = EARTH
REF_FRAME      = TEME
TIME_SYSTEM    = UTC
MEAN_ELEMENT_THEORY = SGP/SGP4

EPOCH          = 2025-11-07T02:54:50.707008
MEAN_MOTION    = 14.18229735
ECCENTRICITY   = .0036669
INCLINATION    = 98.6823
RA_OF_ASC_NODE = 353.1885
ARG_OF_PERICENTER = 339.0372
MEAN_ANOMALY   = 81.4741

EPHEMERIS_TYPE = 0
CLASSIFICATION_TYPE = U
NORAD_CAT_ID   = 25732
ELEMENT_SET_NO = 999
REV_AT_EPOCH   = 37079
BSTAR          = .68331E-4
MEAN_MOTION_DOT = .98E-6
MEAN_MOTION_DDOT = 0

CCSDS_OMM_VERS = 2.0
CREATION_DATE  = 
ORIGINATOR     = 

OBJECT_NAME    = OKEAN-O
OBJECT_ID      = 1999-039A
CENTER_NAME    = EARTH
REF_FRAME      = TEME
TIME_SYSTEM    = UTC
MEAN_ELEMENT_THEORY = SGP/SGP4

EPOCH          = 2025-11-07T03:54:09.705312
MEAN_MOTION    = 14.80068236
ECCENTRICITY   = .0001619
INCLINATION    = 97.9655
RA_OF_ASC_NODE = 7.1643
ARG_OF_PERICENTER = 71.6680
MEAN_ANOMALY   = 288.4708

EPHEMERIS_TYPE = 0
CLASSIFICATION_TYPE = U
NORAD_CAT_ID   = 25860
ELEMENT_SET_NO = 999
REV_AT_EPOCH   = 41626
BSTAR          = .1436E-3
MEAN_MOTION_DOT = .1036E-4
MEAN_MOTION_DDOT = 0

CCSDS_OMM_VERS = 2.0
CREATION_DATE  = 
ORIGINATOR     = 

OBJECT_NAME    = SL-16 R/B
OBJECT_ID      = 1999-039B
CENTER_NAME    = EARTH
REF_FRAME      = TEME
TIME_SYSTEM    = UTC
MEAN_ELEMENT_THEORY = SGP/SGP4

EPOCH          = 2025-11-07T02:59:17.428992
MEAN_MOTION    = 14.81506512
ECCENTRICITY   = .0013616
INCLINATION    = 98.0179
RA_OF_ASC_NODE = 5.2647
ARG_OF_PERICENTER = 297.6772
MEAN_ANOMALY   = 62.3058

EPHEMERIS_TYPE = 0
CLASSIFICATION_TYPE = U
NORAD_CAT_ID   = 25861
ELEMENT_SET_NO = 999
REV_AT_EPOCH   = 41871
BSTAR          = .11066E-3
MEAN_MOTION_DOT = .814E-5
MEAN_MOTION_DDOT = 0

CCSDS_OMM_VERS = 2.0
CREATION_DATE  = 
ORIGINATOR     = 

OBJECT_NAME    = DELTA 2 R/B
OBJECT_ID      = 1999-041E
CENTER_NAME    = EARTH
REF_FRAME      = TEME
TIME_SYSTEM    = UTC
MEAN_ELEMENT_THEORY = SGP/SGP4

EPOCH          = 2025-11-06T17:43:53.370624
MEAN_MOTION    = 14.11271121
ECCENTRICITY   = .05047672
INCLINATION    = 51.7629
RA_OF_ASC_NODE = 72.1373
ARG_OF_PERICENTER = 345.6796
MEAN_ANOMALY   = 13.0262

EPHEMERIS_TYPE = 0
CLASSIFICATION_TYPE = U
NORAD_CAT_ID   = 25876
ELEMENT_SET_NO = 999
REV_AT_EPOCH   = 34566
BSTAR          = .25133684E-3
MEAN_MOTION_DOT = .1319E-4
MEAN_MOTION_DDOT = 0

CCSDS_OMM_VERS = 2.0
CREATION_DATE  = 
ORIGINATOR     = 

OBJECT_NAME    = HELIOS 1B
OBJECT_ID      = 1999-064A
CENTER_NAME    = EARTH
REF_FRAME      = TEME
TIME_SYSTEM    = UTC
MEAN_ELEMENT_THEORY = SGP/SGP4

EPOCH          = 2025-11-07T03:26:56.857632
MEAN_MOTION    = 14.87054749
ECCENTRICITY   = .0002552
INCLINATION    = 98.1756
RA_OF_ASC_NODE = 204.7587
ARG_OF_PERICENTER = 91.3272
MEAN_ANOMALY   = 268.8236

EPHEMERIS_TYPE = 0
CLASSIFICATION_TYPE = U
NORAD_CAT_ID   = 25977
ELEMENT_SET_NO = 999
REV_AT_EPOCH   = 66704
BSTAR          = .28977E-3
MEAN_MOTION_DOT = .254E-4
MEAN_MOTION_DDOT = 0

CCSDS_OMM_VERS = 2.0
CREATION_DATE  = 
ORIGINATOR     = 

OBJECT_NAME    = TERRA
OBJECT_ID      = 1999-068A
CENTER_NAME    = EARTH
REF_FRAME      = TEME
TIME_SYSTEM    = UTC
MEAN_ELEMENT_THEORY = SGP/SGP4

EPOCH          = 2025-11-07T04:31:22.968192
MEAN_MOTION    = 14.60887869
ECCENTRICITY   = .0001982
INCLINATION    = 97.9799
RA_OF_ASC_NODE = 4.1671
ARG_OF_PERICENTER = 176.3894
MEAN_ANOMALY   = 251.0567

EPHEMERIS_TYPE = 0
CLASSIFICATION_TYPE = U
NORAD_CAT_ID   = 25994
ELEMENT_SET_NO = 999
REV_AT_EPOCH   = 37719
BSTAR          = .14865E-3
MEAN_MOTION_DOT = .683E-5
MEAN_MOTION_DDOT = 0

CCSDS_OMM_VERS = 2.0
CREATION_DATE  = 
ORIGINATOR     = 

OBJECT_NAME    = SL-16 R/B
OBJECT_ID      = 2000-006B
CENTER_NAME    = EARTH
REF_FRAME      = TEME
TIME_SYSTEM    = UTC
MEAN_ELEMENT_THEORY = SGP/SGP4

EPOCH          = 2025-11-07T03:34:18.364224
MEAN_MOTION    = 14.15801512
ECCENTRICITY   = .0016507
INCLINATION    = 71.0041
RA_OF_ASC_NODE = 355.4936
ARG_OF_PERICENTER = 359.7130
MEAN_ANOMALY   = 0.3980

EPHEMERIS_TYPE = 0
CLASSIFICATION_TYPE = U
NORAD_CAT_ID   = 26070
ELEMENT_SET_NO = 999
REV_AT_EPOCH   = 33121
BSTAR          = .87117E-4
MEAN_MOTION_DOT = .124E-5
MEAN_MOTION_DDOT = 0

